     2.100          NAVIGATION                              RINEX VERSION / TYPE
fic2rin                                 09/06/2017 00:06:17 PGM / RUN BY / DATE
                                                            END OF HEADER
26 17  9  5 22  0  0.0 -.433936715126D-03  .101181285572D-10  .000000000000D+00
     .570000000000D+02  .201875000000D+02  .417195949314D-08  .267516755215D+01
     .103563070297D-05  .187123147771D-02  .123232603073D-04  .515376778984D+04
     .252000000000D+06  .167638063431D-07 -.101261213045D+00  .316649675369D-07
     .958513084866D+00  .141656250000D+03  .543255360195D-02 -.782318300983D-08
    -.222509268404D-09  .100000000000D+01  .196500000000D+04  .000000000000D+00
     .240000000000D+01  .000000000000D+00  .745058059692D-08  .570000000000D+02
     .244806000000D+06  .400000000000D+01
27 17  9  5 22  0  0.0  .320919789374D-03  .534328137292D-11  .000000000000D+00
     .570000000000D+02  .969375000000D+02  .430125059292D-08  .859519839571D+00
     .498630106449D-05  .491898925975D-02  .501796603203D-05  .515366932869D+04
     .252000000000D+06 -.149011611938D-07  .955051359871D+00  .124797224998D-06
     .975529591432D+00  .291468750000D+03  .398503532483D+00 -.816998316974D-08
     .415374444870D-09  .100000000000D+01  .196500000000D+04  .000000000000D+00
     .240000000000D+01  .000000000000D+00  .139698386192D-08  .570000000000D+02
     .244806000000D+06  .400000000000D+01
28 17  9  5 22  0  0.0  .643379054964D-03  .318323145621D-11  .000000000000D+00
     .910000000000D+02  .348437500000D+02  .343442877203D-08  .174844997062D+01
     .164657831192D-05  .197836820735D-01  .138189643621D-04  .515366219902D+04
     .252000000000D+06  .247731804848D-06 -.425649620301D-02 -.441446900368D-06
     .988276976812D+00  .122250000000D+03 -.156499812999D+01 -.734673459241D-08
    -.717887045734D-10  .100000000000D+01  .196500000000D+04  .000000000000D+00
     .485000000000D+01  .000000000000D+00 -.111758708954D-07  .910000000000D+02
     .244806000000D+06  .400000000000D+01
29 17  9  5 22  0  0.0  .566413626075D-03 -.443378667114D-11  .000000000000D+00
     .810000000000D+02  .925312500000D+02  .416160191885D-08  .212613321350D+01
     .485032796860D-05  .545750721358D-03  .488758087158D-05  .515357027817D+04
     .252000000000D+06 -.223517417908D-07  .101786932552D+01  .558793544769D-08
     .981787194257D+00  .294281250000D+03  .884457828099D+00 -.809212278368D-08
     .485734518507D-09  .100000000000D+01  .196500000000D+04  .000000000000D+00
     .240000000000D+01  .000000000000D+00 -.102445483208D-07  .810000000000D+02
     .244806000000D+06  .400000000000D+01
31 17  9  5 22  0  0.0  .177187379450D-03 -.250111042988D-11  .000000000000D+00
     .560000000000D+02 -.506875000000D+02  .474841207614D-08 -.218672899489D+01
    -.264309346676D-05  .849634164479D-02  .584684312344D-05  .515376857948D+04
     .252000000000D+06 -.182539224625D-06 -.110249488517D+01 -.912696123123D-07
     .965649967289D+00  .271000000000D+03 -.244768072601D+00 -.823462871962D-08
    -.511449875369D-09  .100000000000D+01  .196500000000D+04  .000000000000D+00
     .240000000000D+01  .000000000000D+00 -.135041773319D-07  .560000000000D+02
     .244806000000D+06  .400000000000D+01
32 17  9  5 22  0  0.0 -.495339278132D-03 -.602540239925D-11  .000000000000D+00
     .390000000000D+02  .596875000000D+02  .492984820511D-08  .144709890532D+01
     .313296914101D-05  .142947654240D-02  .686757266521D-05  .515375670815D+04
     .252000000000D+06 -.167638063431D-07 -.218915491829D+01  .102445483208D-06
     .957642995320D+00  .246062500000D+03 -.254732886268D+01 -.832713257278D-08
     .441446959466D-09  .100000000000D+01  .196500000000D+04  .000000000000D+00
     .240000000000D+01  .000000000000D+00  .931322574615D-09  .390000000000D+02
     .244806000000D+06  .400000000000D+01
13 17  9  5 21 59 44.0 -.909008085728D-04 -.682121026330D-12  .000000000000D+00
     .220000000000D+02  .508437500000D+02  .481912930751D-08 -.781381692552D+00
     .272691249847D-05  .350937363692D-02  .590272247791D-05  .515369147682D+04
     .251984000000D+06 -.409781932831D-07 -.206506565274D+01 -.104308128357D-06
     .969037523800D+00  .266531250000D+03  .176486434450D+01 -.831856078716D-08
     .375729936374D-09  .100000000000D+01  .196500000000D+04  .000000000000D+00
     .240000000000D+01  .000000000000D+00 -.111758708954D-07  .220000000000D+02
     .250326000000D+06  .400000000000D+01
19 17  9  5 21 59 44.0 -.487649347633D-03  .181898940355D-11  .000000000000D+00
     .500000000000D+01  .963125000000D+02  .434232373236D-08 -.244761192644D+01
     .477023422718D-05  .100938762771D-01  .402331352234D-05  .515367719460D+04
     .251984000000D+06  .121071934700D-06  .105521987844D+01 -.726431608200D-07
     .977930888073D+00  .307625000000D+03  .106338320856D+01 -.809355141462D-08
     .584310053145D-09  .100000000000D+01  .196500000000D+04  .000000000000D+00
     .240000000000D+01  .000000000000D+00 -.153668224812D-07  .500000000000D+01
     .250476000000D+06  .400000000000D+01
13 17  9  5 23 59 44.0 -.909054651856D-04 -.682121026330D-12  .000000000000D+00
     .390000000000D+02  .534687500000D+02  .486127392014D-08  .268847552043D+00
     .287592411041D-05  .350947619881D-02  .609457492828D-05  .515369175911D+04
     .259184000000D+06  .931322574615D-08 -.206512630386D+01  .409781932831D-07
     .969040686629D+00  .265750000000D+03  .176480753939D+01 -.833463288520D-08
     .504663878419D-09  .100000000000D+01  .196500000000D+04  .000000000000D+00
     .240000000000D+01  .000000000000D+00 -.111758708954D-07  .390000000000D+02
     .252006000000D+06  .400000000000D+01
19 17  9  5 23 59 44.0 -.487635843456D-03  .181898940355D-11  .000000000000D+00
     .600000000000D+01  .956875000000D+02  .427339228966D-08 -.139742794160D+01
     .528059899807D-05  .100939831464D-01  .387243926525D-05  .515367722893D+04
     .259184000000D+06  .210478901863D-06  .105516189568D+01  .931322574615D-07
     .977934489777D+00  .309312500000D+03  .106337624945D+01 -.821248494010D-08
     .503949562951D-09  .100000000000D+01  .196500000000D+04  .000000000000D+00
     .240000000000D+01  .000000000000D+00 -.153668224812D-07  .600000000000D+01
     .252006000000D+06  .400000000000D+01
 1 17  9  6  0  0  0.0  .553801655769D-04 -.454747350886D-12  .000000000000D+00
     .260000000000D+02 -.788125000000D+02  .469376694280D-08 -.302491881007D+00
    -.397488474846D-05  .701488612685D-02  .367127358913D-05  .515367814064D+04
     .259200000000D+06  .447034835815D-07  .201265548611D+01  .558793544769D-07
     .968228870962D+00  .313625000000D+03  .619228695669D+00 -.846320966951D-08
    -.245724521127D-09  .100000000000D+01  .196500000000D+04  .000000000000D+00
     .240000000000D+01  .000000000000D+00  .558793544769D-08  .260000000000D+02
     .252006000000D+06  .400000000000D+01
 2 17  9  6  0  0  0.0  .337141100317D-03 -.898126018001D-11  .000000000000D+00
     .720000000000D+02 -.693125000000D+02  .527950562689D-08  .862160514960D-01
    -.373832881451D-05  .170466693817D-01  .316090881824D-05  .515357356071D+04
     .259200000000D+06 -.251457095146D-06  .195710635516D+01  .236555933952D-06
     .947166573747D+00  .314968750000D+03 -.195876782341D+01 -.897001649433D-08
    -.253581991279D-09  .100000000000D+01  .196500000000D+04  .000000000000D+00
     .240000000000D+01  .000000000000D+00 -.204890966415D-07  .720000000000D+02
     .252006000000D+06  .400000000000D+01
 3 17  9  6  0  0  0.0 -.710180029273D-04  .409272615798D-11  .000000000000D+00
     .280000000000D+02 -.425625000000D+02  .438446834499D-08 -.120242135370D+01
    -.223517417908D-05  .941937323660D-03  .124033540487D-04  .515367048073D+04
     .259200000000D+06  .223517417908D-07  .305510668786D+01 -.186264514923D-07
     .960669762586D+00  .141031250000D+03  .391451448107D+00 -.786889919981D-08
     .928610108910D-10  .100000000000D+01  .196500000000D+04  .000000000000D+00
     .240000000000D+01  .000000000000D+00  .232830643654D-08  .280000000000D+02
     .252006000000D+06  .400000000000D+01
 5 17  9  6  0  0  0.0 -.304868444800D-04  .136424205266D-11  .000000000000D+00
     .440000000000D+02 -.647812500000D+02  .460590614019D-08  .261967672874D+01
    -.325776636600D-05  .516014371533D-02  .135544687510D-04  .515356058502D+04
     .259200000000D+06 -.633299350739D-07  .303690848581D+01 -.745058059692D-07
     .947601967426D+00  .111312500000D+03  .573564506578D+00 -.791282960111D-08
     .746459664470D-10  .100000000000D+01  .196500000000D+04  .000000000000D+00
     .240000000000D+01  .000000000000D+00 -.107102096081D-07  .440000000000D+02
     .252006000000D+06  .400000000000D+01
 6 17  9  6  0  0  0.0  .394971575588D-03  .329691829393D-11  .000000000000D+00
     .700000000000D+02 -.836562500000D+02  .465876548485D-08 -.157406954163D+00
    -.454671680927D-05  .566992443055D-03  .345893204212D-05  .515374029732D+04
     .259200000000D+06 -.223517417908D-07  .200428908102D+01  .242143869400D-07
     .967979737476D+00  .312593750000D+03 -.110232873278D+01 -.842927968476D-08
    -.277868717205D-09  .100000000000D+01  .196500000000D+04  .000000000000D+00
     .240000000000D+01  .000000000000D+00  .465661287308D-08  .700000000000D+02
     .252006000000D+06  .400000000000D+01
 7 17  9  6  0  0  0.0  .306410249323D-03 -.488853402203D-11  .000000000000D+00
     .100000000000D+03 -.489375000000D+02  .490841874106D-08 -.928575601598D+00
    -.264309346676D-05  .110412709182D-01  .559352338314D-05  .515371507072D+04
     .259200000000D+06  .234693288803D-06 -.111393656349D+01  .987201929092D-07
     .960917412673D+00  .270531250000D+03 -.256284218142D+01 -.832034657583D-08
    -.572523847916D-09  .100000000000D+01  .196500000000D+04  .000000000000D+00
     .240000000000D+01  .000000000000D+00 -.111758708954D-07  .100000000000D+03
     .252006000000D+06  .400000000000D+01
